ONEWEB-0387             
1 49313U 21090AL  26075.11003417  .00000128  00000+0  28390-3 0  9994
2 49313  87.9152 293.0468 0001524  75.8238 284.3065 13.20770582217532
ONEWEB-0393             
1 50473U 21132E   26075.10786298  .00000069  00000+0  14552-3 0  9993
2 50473  87.9170  24.3451 0001784  74.8565 285.2764 13.17648977205854
ONEWEB-0398             
1 50478U 21132K   26074.97648329  .00000366  00000+0  99564-3 0  9990
2 50478  87.8879  39.5834 0002205  76.2496 283.8877 13.11414676203392
ONEWEB-0403             
1 50483U 21132Q   26075.16893760  .00000057  00000+0  11274-3 0  9998
2 50483  87.9254 353.9301 0001785  74.7566 285.3764 13.18687158209337
ONEWEB-0412             
1 50489U 21132W   26075.15573826  .00000135  00000+0  30933-3 0  9991
2 50489  87.9255 353.9393 0001623  86.7897 273.3421 13.18686819209392
ONEWEB-0419             
1 50494U 21132AB  26075.18213198  .00000098  00000+0  21686-3 0  9996
2 50494  87.9253 353.9279 0001970  70.3766 289.7579 13.18687659209329
ONEWEB-0429             
1 50500U 21132AH  26075.16233860  .00000041  00000+0  72503-4 0  9993
2 50500  87.9248 353.9419 0001898  82.2515 277.8833 13.18686399209321
ONEWEB-0410             
1 51622U 22012A   26075.11954615 -.00000084  00000+0 -25066-3 0  9990
2 51622  87.9171  24.3284 0001341  31.7908 328.3304 13.17649386201443
ONEWEB-0425             
1 51628U 22012G   26075.18054143 -.00000101  00000+0 -32579-3 0  9997
2 51628  87.8787  54.7780 0001556  80.2198 279.9105 13.10369593197140
ONEWEB-0436             
1 51633U 22012M   26075.11446434 -.00000014  00000+0 -69564-4 0  9992
2 51633  87.9169  24.3195 0001998  85.8085 274.3275 13.17646601201429
ONEWEB-0444             
1 51638U 22012S   26075.16893228  .00000470  00000+0  13106-2 0  9992
2 51638  87.8779  54.7862 0001848  86.6999 273.4340 13.10369925197156
ONEWEB-0452             
1 51644U 22012Y   26074.88161253  .00000022  00000+0  23948-4 0  9993
2 51644  87.9160  24.4070 0001598  82.9540 277.1773 13.17650515201383
ONEWEB-0463             
1 51650U 22012AE  26075.11279636 -.00000042  00000+0 -14092-3 0  9995
2 51650  87.9159  24.3624 0001978  76.7592 283.3761 13.17649430201416
