
    {
      "objectName": "ONEWEB-0387",
      "objectId": "2021-090AL",
      "noradId": 49313,
      "epochUtc": "2026-03-16T02:38:26.952288Z",
      "meanMotionRevPerDay": 13.20770582,
      "eccentricity": 0.00015248,
      "inclinationDeg": 87.9152,
      "raanDeg": 293.0468,
      "argPerigeeDeg": 75.8238,
      "meanAnomalyDeg": 284.3065,
      "bstar": 0.00028389519,
      "meanMotionDot": 0.00000128,
      "meanMotionDdot": 0,
      "elementSetNo": 999,
      "revAtEpoch": 21753
    },
    {
      "objectName": "ONEWEB-0393",
      "objectId": "2021-132E",
      "noradId": 50473,
      "epochUtc": "2026-03-16T02:35:19.361472Z",
      "meanMotionRevPerDay": 13.17648977,
      "eccentricity": 0.00017845,
      "inclinationDeg": 87.917,
      "raanDeg": 24.3451,
      "argPerigeeDeg": 74.8565,
      "meanAnomalyDeg": 285.2764,
      "bstar": 0.00014552407,
      "meanMotionDot": 6.9e-7,
      "meanMotionDdot": 0,
      "elementSetNo": 999,
      "revAtEpoch": 20585
    },
    {
      "objectName": "ONEWEB-0398",
      "objectId": "2021-132K",
      "noradId": 50478,
      "epochUtc": "2026-03-15T23:26:08.156256Z",
      "meanMotionRevPerDay": 13.11414676,
      "eccentricity": 0.00022053,
      "inclinationDeg": 87.8879,
      "raanDeg": 39.5834,
      "argPerigeeDeg": 76.2496,
      "meanAnomalyDeg": 283.8877,
      "bstar": 0.00099564447,
      "meanMotionDot": 0.00000366,
      "meanMotionDdot": 0,
      "elementSetNo": 999,
      "revAtEpoch": 20339
    },
    {
      "objectName": "ONEWEB-0403",
      "objectId": "2021-132Q",
      "noradId": 50483,
      "epochUtc": "2026-03-16T04:03:16.208640Z",
      "meanMotionRevPerDay": 13.18687158,
      "eccentricity": 0.00017852,
      "inclinationDeg": 87.9254,
      "raanDeg": 353.9301,
      "argPerigeeDeg": 74.7566,
      "meanAnomalyDeg": 285.3764,
      "bstar": 0.00011273581,
      "meanMotionDot": 5.7e-7,
      "meanMotionDdot": 0,
      "elementSetNo": 999,
      "revAtEpoch": 20933
    },
    {
      "objectName": "ONEWEB-0412",
      "objectId": "2021-132W",
      "noradId": 50489,
      "epochUtc": "2026-03-16T03:44:15.785664Z",
      "meanMotionRevPerDay": 13.18686819,
      "eccentricity": 0.00016231,
      "inclinationDeg": 87.9255,
      "raanDeg": 353.9393,
      "argPerigeeDeg": 86.7897,
      "meanAnomalyDeg": 273.3421,
      "bstar": 0.0003093253,
      "meanMotionDot": 0.00000135,
      "meanMotionDdot": 0,
      "elementSetNo": 999,
      "revAtEpoch": 20939
    },
    {
      "objectName": "ONEWEB-0419",
      "objectId": "2021-132AB",
      "noradId": 50494,
      "epochUtc": "2026-03-16T04:22:16.203072Z",
      "meanMotionRevPerDay": 13.18687659,
      "eccentricity": 0.00019705,
      "inclinationDeg": 87.9253,
      "raanDeg": 353.9279,
      "argPerigeeDeg": 70.3766,
      "meanAnomalyDeg": 289.7579,
      "bstar": 0.00021686415,
      "meanMotionDot": 9.8e-7,
      "meanMotionDdot": 0,
      "elementSetNo": 999,
      "revAtEpoch": 20932
    },
    {
      "objectName": "ONEWEB-0429",
      "objectId": "2021-132AH",
      "noradId": 50500,
      "epochUtc": "2026-03-16T03:53:46.055040Z",
      "meanMotionRevPerDay": 13.18686399,
      "eccentricity": 0.00018982,
      "inclinationDeg": 87.9248,
      "raanDeg": 353.9419,
      "argPerigeeDeg": 82.2515,
      "meanAnomalyDeg": 277.8833,
      "bstar": 0.000072503382,
      "meanMotionDot": 4.1e-7,
      "meanMotionDdot": 0,
      "elementSetNo": 999,
      "revAtEpoch": 20932
    },
    {
      "objectName": "ONEWEB-0410",
      "objectId": "2022-012A",
      "noradId": 51622,
      "epochUtc": "2026-03-16T02:52:08.787360Z",
      "meanMotionRevPerDay": 13.17649386,
      "eccentricity": 0.00013412,
      "inclinationDeg": 87.9171,
      "raanDeg": 24.3284,
      "argPerigeeDeg": 31.7908,
      "meanAnomalyDeg": 328.3304,
      "bstar": -0.00025066166,
      "meanMotionDot": -8.4e-7,
      "meanMotionDdot": 0,
      "elementSetNo": 999,
      "revAtEpoch": 20144
    },
    {
      "objectName": "ONEWEB-0425",
      "objectId": "2022-012G",
      "noradId": 51628,
      "epochUtc": "2026-03-16T04:19:58.779552Z",
      "meanMotionRevPerDay": 13.10369593,
      "eccentricity": 0.00015568,
      "inclinationDeg": 87.8787,
      "raanDeg": 54.778,
      "argPerigeeDeg": 80.2198,
      "meanAnomalyDeg": 279.9105,
      "bstar": -0.00032578784,
      "meanMotionDot": -0.00000101,
      "meanMotionDdot": 0,
      "elementSetNo": 999,
      "revAtEpoch": 19714
    },
    {
      "objectName": "ONEWEB-0436",
      "objectId": "2022-012M",
      "noradId": 51633,
      "epochUtc": "2026-03-16T02:44:49.718976Z",
      "meanMotionRevPerDay": 13.17646601,
      "eccentricity": 0.00019984,
      "inclinationDeg": 87.9169,
      "raanDeg": 24.3195,
      "argPerigeeDeg": 85.8085,
      "meanAnomalyDeg": 274.3275,
      "bstar": -0.000069563792,
      "meanMotionDot": -1.4e-7,
      "meanMotionDdot": 0,
      "elementSetNo": 999,
      "revAtEpoch": 20142
    },
    {
      "objectName": "ONEWEB-0444",
      "objectId": "2022-012S",
      "noradId": 51638,
      "epochUtc": "2026-03-16T04:03:15.748992Z",
      "meanMotionRevPerDay": 13.10369925,
      "eccentricity": 0.00018489,
      "inclinationDeg": 87.8779,
      "raanDeg": 54.7862,
      "argPerigeeDeg": 86.6999,
      "meanAnomalyDeg": 273.434,
      "bstar": 0.0013106148,
      "meanMotionDot": 0.0000047,
      "meanMotionDdot": 0,
      "elementSetNo": 999,
      "revAtEpoch": 19715
    },
    {
      "objectName": "ONEWEB-0452",
      "objectId": "2022-012Y",
      "noradId": 51644,
      "epochUtc": "2026-03-15T21:09:31.322592Z",
      "meanMotionRevPerDay": 13.17650515,
      "eccentricity": 0.00015982,
      "inclinationDeg": 87.916,
      "raanDeg": 24.407,
      "argPerigeeDeg": 82.954,
      "meanAnomalyDeg": 277.1773,
      "bstar": 0.000023948156,
      "meanMotionDot": 2.2e-7,
      "meanMotionDdot": 0,
      "elementSetNo": 999,
      "revAtEpoch": 20138
    },
    {
      "objectName": "ONEWEB-0463",
      "objectId": "2022-012AE",
      "noradId": 51650,
      "epochUtc": "2026-03-16T02:42:25.605504Z",
      "meanMotionRevPerDay": 13.1764943,
      "eccentricity": 0.00019787,
      "inclinationDeg": 87.9159,
      "raanDeg": 24.3624,
      "argPerigeeDeg": 76.7592,
      "meanAnomalyDeg": 283.3761,
      "bstar": -0.0001409152,
      "meanMotionDot": -4.2e-7,
      "meanMotionDdot": 0,
      "elementSetNo": 999,
      "revAtEpoch": 20141
    }